NORAD_CAT_ID,OBJECT_NAME,OBJECT_TYPE,EPOCH,MEAN_MOTION,ECCENTRICITY,INCLINATION,RA_OF_ASC_NODE,ARG_OF_PERICENTER,MEAN_ANOMALY,BSTAR,MEAN_MOTION_DOT,MEAN_MOTION_DDOT,TLE_LINE0,TLE_LINE1,TLE_LINE2,SEMIMAJOR_AXIS,PERIOD,APOGEE,PERIGEE,DECAYED
53638.0,STARLINK-4594,PAYLOAD,2022-11-06 14:00:01,15.49974815,0.0001356,53.2127,300.1465,58.3995,4.4576,-0.0013218,-0.00074994,0.0,0 STARLINK-4594,1 53638U 22104BC  22310.58334491 -.00074994  00000-0 -13218-2 0  9991,2 53638  53.2127 300.1465 0001356  58.3995   4.4576 15.49974815  1303,6794.937,92.905,417.723,415.88,0.0
53638.0,STARLINK-4594,PAYLOAD,2022-11-07 06:00:00,15.49928143,0.0001218,53.2132,296.9602,55.5917,129.1835,-0.0016486,-0.00093056,0.0,0 STARLINK-4594,1 53638U 22104BC  22311.25001157 -.00093056  00000-0 -16486-2 0  9996,2 53638  53.2132 296.9602 0001218  55.5917 129.1835 15.49928143 11211,6795.073,92.908,417.766,416.11,0.0
53638.0,STARLINK-4594,PAYLOAD,2022-11-07 14:00:01,15.49876656,0.0001061,53.2134,295.3664,51.3116,194.3902,-0.00026686,-0.00015562,0.0,0 STARLINK-4594,1 53638U 22104BC  22311.58334491 -.00015562  00000-0 -26686-3 0  9992,2 53638  53.2134 295.3664 0001061  51.3116 194.3902 15.49876656 11260,6795.224,92.911,417.81,416.36800000000005,0.0
53638.0,STARLINK-4594,PAYLOAD,2022-11-07 22:00:00,15.49862554,9.7e-05,53.2145,293.7719,64.5287,242.0715,0.0010164999999999,0.0005762,0.0,0 STARLINK-4594,1 53638U 22104BC  22311.91667824  .00057620  00000-0  10165-2 0  9991,2 53638  53.2145 293.7719 0000970  64.5287 242.0715 15.49862554  1307,6795.265,92.911,417.789,416.471,0.0
53638.0,STARLINK-4594,PAYLOAD,2022-11-08 10:00:01,15.49899625,0.0001123,53.2142,291.3842,52.5134,165.5598,0.0014161,0.00080795,0.0,0 STARLINK-4594,1 53638U 22104BC  22312.41668981  .00080795  00000-0  14161-2 0  9991,2 53638  53.2142 291.3842 0001123  52.5134 165.5598 15.49899625 11391,6795.156,92.909,417.785,416.258,0.0
53638.0,STARLINK-4594,PAYLOAD,2022-11-08 14:00:01,15.49964302,0.0001146,53.2142,290.5866,56.2408,12.2289,-0.0010279999999999,-0.00058524,0.0,0 STARLINK-4594,1 53638U 22104BC  22312.58334491 -.00058524  00000-0 -10280-2 0  9990,2 53638  53.2142 290.5866 0001146  56.2408  12.2289 15.49964302  1308,6794.967,92.905,417.611,416.054,0.0
53638.0,STARLINK-4594,PAYLOAD,2022-11-08 22:00:00,15.49916165,0.0001257,53.2147,288.992,71.872,57.5853,-0.0005022,-0.0002888,0.0,0 STARLINK-4594,1 53638U 22104BC  22312.91667824 -.00028880  00000-0 -50220-3 0  9997,2 53638  53.2147 288.9920 0001257  71.8720  57.5853 15.49916165 11470,6795.108,92.908,417.827,416.119,0.0
53638.0,STARLINK-4594,PAYLOAD,2022-11-09 06:00:00,15.49710084,0.0001194,53.217,287.4014,83.1676,107.1021,0.004954,0.0028958,0.0,0 STARLINK-4594,1 53638U 22104BC  22313.25001157  .00289580  00000-0  49540-2 0  9992,2 53638  53.2170 287.4014 0001194  83.1676 107.1021 15.49710084 11527,6795.71,92.921,418.387,416.764,0.0
53638.0,STARLINK-4594,PAYLOAD,2022-11-09 14:00:01,15.49875364,0.0001547,53.2152,285.8067,68.6547,182.6016,-0.00025031,-0.00014627,0.0,0 STARLINK-4594,1 53638U 22104BC  22313.58334491 -.00014627  00000-0 -25031-3 0  9998,2 53638  53.2152 285.8067 0001547  68.6547 182.6016 15.49875364  1304,6795.227,92.911,418.144,416.041,0.0
53638.0,STARLINK-4594,PAYLOAD,2022-11-09 22:00:01,15.50114669,0.0001281,53.2164,284.2117,76.5967,235.5753,-0.013288,-0.00696589,0.0,0 STARLINK-4594,1 53638U 22104BC  22313.91668981 -.00696589  00000-0 -13288-1 0  9991,2 53638  53.2164 284.2117 0001281  76.5967 235.5753 15.50114669 11623,6794.528,92.896,417.263,415.523,0.0
53638.0,STARLINK-4594,PAYLOAD,2022-11-10 14:00:01,15.49055479,0.0001388,53.217,281.0286,52.6946,20.6377,-0.021096,-0.01055946,0.0,0 STARLINK-4594,1 53638U 22104BC  22314.58334491 -.01055946  00000-0 -21096-1 0  9994,2 53638  53.2170 281.0286 0001388  52.6946  20.6377 15.49055479  1302,6797.625,92.96,420.4330000000001,418.546,0.0
53638.0,STARLINK-4594,PAYLOAD,2022-11-10 16:00:00,15.48907564,0.0001355,53.2175,280.6304,63.2988,114.9702,-0.022909,-0.01149214,0.0,0 STARLINK-4594,1 53638U 22104BC  22314.66667824 -.01149214  00000-0 -22909-1 0  9998,2 53638  53.2175 280.6304 0001355  63.2988 114.9702 15.48907564 11749,6798.058000000001,92.969,420.844,419.001,0.0
53638.0,STARLINK-4594,PAYLOAD,2022-11-10 22:00:00,15.48321423,0.0001396999999999,53.2171,279.4374,53.9993,78.777,-0.024117,-0.01181971,0.0,0 STARLINK-4594,1 53638U 22104BC  22314.91667824 -.01181971  00000-0 -24117-1 0  9995,2 53638  53.2171 279.4374 0001397  53.9993  78.7770 15.48321423  1303,6799.773,93.004,422.588,420.68800000000016,0.0
53638.0,STARLINK-4594,PAYLOAD,2022-11-11 14:00:01,15.46695807,0.000126,53.2169,276.2638,68.87899999999999,179.9246,-0.025628,-0.01186109,0.0,0 STARLINK-4594,1 53638U 22104BC  22315.58334491 -.01186109  00000-0 -25628-1 0  9996,2 53638  53.2169 276.2638 0001260  68.8790 179.9246 15.46695807 11881,6804.5369999999975,93.102,427.259,425.544,0.0
53638.0,STARLINK-4594,PAYLOAD,2022-11-11 22:00:00,15.45875709,0.0001186,53.2169,274.6785,60.3611,244.9919,-0.026077,-0.01174137,0.0,0 STARLINK-4594,1 53638U 22104BC  22315.91667824 -.01174137  00000-0 -26077-1 0  9999,2 53638  53.2169 274.6785 0001186  60.3611 244.9919 15.45875709  1308,6806.943,93.151,429.615,428.001,0.0
53638.0,STARLINK-4594,PAYLOAD,2022-11-12 14:00:01,15.44242935,0.0001248,53.217,271.5164,55.7009,359.8167,-0.027468,-0.0116966,0.0,0 STARLINK-4594,1 53638U 22104BC  22316.58334491 -.01169660  00000-0 -27468-1 0  9994,2 53638  53.2170 271.5164 0001248  55.7009 359.8167 15.44242935  1304,6811.74,93.25,434.456,432.755,0.0
53638.0,STARLINK-4594,PAYLOAD,2022-11-12 22:00:00,15.43429607,0.0001306,53.2168,269.937,57.3617,51.7687,-0.028194,-0.01167913,0.0,0 STARLINK-4594,1 53638U 22104BC  22316.91667824 -.01167913  00000-0 -28194-1 0  9996,2 53638  53.2168 269.9370 0001306  57.3617  51.7687 15.43429607 12094,6814.1330000000025,93.299,436.888,435.108,0.0
53638.0,STARLINK-4594,PAYLOAD,2022-11-13 14:00:01,15.41814846,0.0001484,53.2171,266.7866,65.087,148.3305,-0.030255,-0.01185076,0.0,0 STARLINK-4594,1 53638U 22104BC  22317.58334491 -.01185076  00000-0 -30255-1 0  9992,2 53638  53.2171 266.7866 0001484  65.0870 148.3305 15.41814846  1300,6818.89,93.396,441.767,439.74300000000005,0.0
53638.0,STARLINK-4594,PAYLOAD,2022-11-13 22:00:00,15.40995675,0.0001248,53.2168,265.2131,66.5477,197.5532,-0.03088,-0.0117744,0.0,0 STARLINK-4594,1 53638U 22104BC  22317.91667824 -.01177440  00000-0 -30880-1 0  9998,2 53638  53.2168 265.2131 0001248  66.5477 197.5532 15.40995675  1309,6821.306,93.446,444.023,442.32,0.0
53638.0,STARLINK-4594,PAYLOAD,2022-11-14 14:00:01,15.39342097,0.0001203,53.2175,262.0738,56.985,305.5556,-0.031586,-0.01143105,0.0,0 STARLINK-4594,1 53638U 22104BC  22318.58334491 -.01143105  00000-0 -31586-1 0  9998,2 53638  53.2175 262.0738 0001203  56.9850 305.5556 15.39342097 12350,6826.191,93.546,448.877,447.234,0.0
53638.0,STARLINK-4594,PAYLOAD,2022-11-14 22:00:00,15.38527685,0.0001296999999999,53.2175,260.5068,56.4679,353.8193,-0.032387,-0.01141233,0.0,0 STARLINK-4594,1 53638U 22104BC  22318.91667824 -.01141233  00000-0 -32387-1 0  9994,2 53638  53.2175 260.5068 0001297  56.4679 353.8193 15.38527685  1309,6828.599,93.596,451.35,449.579,0.0
53638.0,STARLINK-4594,PAYLOAD,2022-11-15 14:00:01,15.36909612,0.0001399,53.2173,257.3789,57.8379,85.0043,-0.034562,-0.01153909,0.0,0 STARLINK-4594,1 53638U 22104BC  22319.58334491 -.01153909  00000-0 -34562-1 0  9999,2 53638  53.2173 257.3789 0001399  57.8379  85.0043 15.36909612  1306,6833.391,93.695,456.212,454.3,0.0
53638.0,STARLINK-4594,PAYLOAD,2022-11-15 16:00:00,15.36693324,0.0001330999999999,53.2174,256.9879,64.9891,179.1542,-0.034199,-0.01135489,0.0,0 STARLINK-4594,1 53638U 22104BC  22319.66667824 -.01135489  00000-0 -34199-1 0  9996,2 53638  53.2174 256.9879 0001331  64.9891 179.1542 15.36693324 12510,6834.031999999997,93.708,456.807,454.98800000000006,0.0
53638.0,STARLINK-4594,PAYLOAD,2022-11-15 22:00:00,15.36084631,0.0001465,53.2178,255.8178,62.9106,124.7497,-0.034958,-0.01137821,0.0,0 STARLINK-4594,1 53638U 22104BC  22319.91667824 -.01137821  00000-0 -34958-1 0  9999,2 53638  53.2178 255.8178 0001465  62.9106 124.7497 15.36084631  1304,6835.8380000000025,93.745,458.704,456.701,0.0
53638.0,STARLINK-4594,PAYLOAD,2022-11-16 14:00:01,15.34458153,0.0001295,53.2176,252.701,66.1464,208.27,-0.03689,-0.0113927,0.0,0 STARLINK-4594,1 53638U 22104BC  22320.58335648 -.01139270  00000-0 -36890-1 0  9997,2 53638  53.2176 252.7010 0001295  66.1464 208.2700 15.34458153 12654,6840.667,93.844,463.418,461.647,0.0
53638.0,STARLINK-4594,PAYLOAD,2022-11-16 22:00:08,15.33644323,0.0001259,53.2177,251.1456,64.5371,252.142,-0.037852,-0.01139001,0.0,0 STARLINK-4594,1 53638U 22104BC  22320.91675926 -.01139001  00000-0 -37852-1 0  9991,2 53638  53.2177 251.1456 0001259  64.5371 252.1420 15.33644323  1303,6843.087,93.894,465.814,464.091,0.0
53638.0,STARLINK-4594,PAYLOAD,2022-11-17 14:00:01,15.32026334,0.0001233,53.2171,248.0408,58.7963,338.2561,-0.040336,-0.01151835,0.0,0 STARLINK-4594,1 53638U 22104BC  22321.58334491 -.01151835  00000-0 -40336-1 0  9994,2 53638  53.2171 248.0408 0001233  58.7963 338.2561 15.32026334 12818,6847.904,93.993,470.614,468.925,0.0
53638.0,STARLINK-4594,PAYLOAD,2022-11-17 22:00:00,15.31230941,0.0001309,53.2169,246.4912,68.1848,7.8047,-0.042345,-0.01176877,0.0,0 STARLINK-4594,1 53638U 22104BC  22321.91667824 -.01176877  00000-0 -42345-1 0  9995,2 53638  53.2169 246.4912 0001309  68.1848   7.8047 15.31230941  1308,6850.276,94.042,473.037,471.244,0.0
53638.0,STARLINK-4594,PAYLOAD,2022-11-18 14:00:01,15.29591676,0.0001429,53.217,243.3979,64.4271,86.5254,-0.043818,-0.01158839,0.0,0 STARLINK-4594,1 53638U 22104BC  22322.58334491 -.01158839  00000-0 -43818-1 0  9994,2 53638  53.2170 243.3979 0001429  64.4271  86.5254 15.29591676 12961,6855.169,94.143,478.014,476.054,0.0
